[{"CCSDS_OMM_VERS":"2.0","COMMENT":"GENERATED VIA SPACE-TRACK.ORG API","CREATION_DATE":"2020-06-19T17:13:50","ORIGINATOR":"18 SPCS","OBJECT_NAME":"STARLINK-1024","OBJECT_ID":"2019-074S","CENTER_NAME":"EARTH","REF_FRAME":"TEME","TIME_SYSTEM":"UTC","MEAN_ELEMENT_THEORY":"SGP4","EPOCH":"2020-06-19T14:00:01.999872","MEAN_MOTION":"15.05554740","ECCENTRICITY":"0.00009780","INCLINATION":"52.9986","RA_OF_ASC_NODE":"224.9798","ARG_OF_PERICENTER":"102.4595","MEAN_ANOMALY":"131.1058","EPHEMERIS_TYPE":"0","CLASSIFICATION_TYPE":"U","NORAD_CAT_ID":"44729","ELEMENT_SET_NO":"999","REV_AT_EPOCH":"176","BSTAR":"0.00377890000000","MEAN_MOTION_DOT":"0.00055174","MEAN_MOTION_DDOT":"0.0000000000000","SEMIMAJOR_AXIS":"6927.940","PERIOD":"95.645","APOAPSIS":"550.482","PERIAPSIS":"549.127","OBJECT_TYPE":"PAYLOAD","RCS_SIZE":"LARGE","COUNTRY_CODE":"US","LAUNCH_DATE":"2019-11-11","SITE":"AFETR","DECAY_DATE":null,"FILE":"2768844","GP_ID":"155982858","TLE_LINE0":"0 STARLINK-1024","TLE_LINE1":"1 44729U 19074S   20171.58335648 +.00055174 +00000-0 +37789-2 0  9998","TLE_LINE2":"2 44729 052.9986 224.9798 0000978 102.4595 131.1058 15.05554740001767"},{"CCSDS_OMM_VERS":"2.0","COMMENT":"GENERATED VIA SPACE-TRACK.ORG API","CREATION_DATE":"2020-06-19T18:16:10","ORIGINATOR":"18 SPCS","OBJECT_NAME":"STARLINK-1024","OBJECT_ID":"2019-074S","CENTER_NAME":"EARTH","REF_FRAME":"TEME","TIME_SYSTEM":"UTC","MEAN_ELEMENT_THEORY":"SGP4","EPOCH":"2020-06-19T16:00:01.999584","MEAN_MOTION":"15.05624398","ECCENTRICITY":"0.00011800","INCLINATION":"52.9983","RA_OF_ASC_NODE":"224.6060","ARG_OF_PERICENTER":"103.8408","MEAN_ANOMALY":"221.6341","EPHEMERIS_TYPE":"0","CLASSIFICATION_TYPE":"U","NORAD_CAT_ID":"44729","ELEMENT_SET_NO":"999","REV_AT_EPOCH":"3379","BSTAR":"0.03035100000000","MEAN_MOTION_DOT":"0.00468292","MEAN_MOTION_DDOT":"0.0000000000000","SEMIMAJOR_AXIS":"6927.726","PERIOD":"95.641","APOAPSIS":"550.409","PERIAPSIS":"548.774","OBJECT_TYPE":"PAYLOAD","RCS_SIZE":"LARGE","COUNTRY_CODE":"US","LAUNCH_DATE":"2019-11-11","SITE":"AFETR","DECAY_DATE":null,"FILE":"2768863","GP_ID":"155984378","TLE_LINE0":"0 STARLINK-1024","TLE_LINE1":"1 44729U 19074S   20171.66668981  .00468292  00000-0  30351-1 0  9992","TLE_LINE2":"2 44729  52.9983 224.6060 0001180 103.8408 221.6341 15.05624398 33792"},{"CCSDS_OMM_VERS":"2.0","COMMENT":"GENERATED VIA SPACE-TRACK.ORG API","CREATION_DATE":"2020-06-19T18:36:09","ORIGINATOR":"18 SPCS","OBJECT_NAME":"STARLINK-1024","OBJECT_ID":"2019-074S","CENTER_NAME":"EARTH","REF_FRAME":"TEME","TIME_SYSTEM":"UTC","MEAN_ELEMENT_THEORY":"SGP4","EPOCH":"2020-06-19T18:00:00.999648","MEAN_MOTION":"15.05628120","ECCENTRICITY":"0.00014780","INCLINATION":"52.9986","RA_OF_ASC_NODE":"224.2420","ARG_OF_PERICENTER":"116.6448","MEAN_ANOMALY":"300.7250","EPHEMERIS_TYPE":"0","CLASSIFICATION_TYPE":"U","NORAD_CAT_ID":"44729","ELEMENT_SET_NO":"999","REV_AT_EPOCH":"3380","BSTAR":"-0.00386860000000","MEAN_MOTION_DOT":"-0.00056272","MEAN_MOTION_DDOT":"0.0000000000000","SEMIMAJOR_AXIS":"6927.715","PERIOD":"95.641","APOAPSIS":"550.604","PERIAPSIS":"548.556","OBJECT_TYPE":"PAYLOAD","RCS_SIZE":"LARGE","COUNTRY_CODE":"US","LAUNCH_DATE":"2019-11-11","SITE":"AFETR","DECAY_DATE":null,"FILE":"2768893","GP_ID":"155984701","TLE_LINE0":"0 STARLINK-1024","TLE_LINE1":"1 44729U 19074S   20171.75001157 -.00056272  00000-0 -38686-2 0  9991","TLE_LINE2":"2 44729  52.9986 224.2420 0001478 116.6448 300.7250 15.05628120 33804"},{"CCSDS_OMM_VERS":"2.0","COMMENT":"GENERATED VIA SPACE-TRACK.ORG API","CREATION_DATE":"2020-06-19T21:36:08","ORIGINATOR":"18 SPCS","OBJECT_NAME":"STARLINK-1024","OBJECT_ID":"2019-074S","CENTER_NAME":"EARTH","REF_FRAME":"TEME","TIME_SYSTEM":"UTC","MEAN_ELEMENT_THEORY":"SGP4","EPOCH":"2020-06-19T20:00:01.000224","MEAN_MOTION":"15.05588324","ECCENTRICITY":"0.00015280","INCLINATION":"52.9986","RA_OF_ASC_NODE":"223.8753","ARG_OF_PERICENTER":"116.3235","MEAN_ANOMALY":"32.9853","EPHEMERIS_TYPE":"0","CLASSIFICATION_TYPE":"U","NORAD_CAT_ID":"44729","ELEMENT_SET_NO":"999","REV_AT_EPOCH":"3382","BSTAR":"-0.00244310000000","MEAN_MOTION_DOT":"-0.00035705","MEAN_MOTION_DDOT":"0.0000000000000","SEMIMAJOR_AXIS":"6927.837","PERIOD":"95.643","APOAPSIS":"550.760","PERIAPSIS":"548.643","OBJECT_TYPE":"PAYLOAD","RCS_SIZE":"LARGE","COUNTRY_CODE":"US","LAUNCH_DATE":"2019-11-11","SITE":"AFETR","DECAY_DATE":null,"FILE":"2768933","GP_ID":"155985497","TLE_LINE0":"0 STARLINK-1024","TLE_LINE1":"1 44729U 19074S   20171.83334491 -.00035705  00000-0 -24431-2 0  9991","TLE_LINE2":"2 44729  52.9986 223.8753 0001528 116.3235  32.9853 15.05588324 33821"},{"CCSDS_OMM_VERS":"2.0","COMMENT":"GENERATED VIA SPACE-TRACK.ORG API","CREATION_DATE":"2020-06-19T22:36:10","ORIGINATOR":"18 SPCS","OBJECT_NAME":"STARLINK-1024","OBJECT_ID":"2019-074S","CENTER_NAME":"EARTH","REF_FRAME":"TEME","TIME_SYSTEM":"UTC","MEAN_ELEMENT_THEORY":"SGP4","EPOCH":"2020-06-19T22:00:00.999936","MEAN_MOTION":"15.05573846","ECCENTRICITY":"0.00009890","INCLINATION":"52.9986","RA_OF_ASC_NODE":"223.4819","ARG_OF_PERICENTER":"112.9863","MEAN_ANOMALY":"128.2106","EPHEMERIS_TYPE":"0","CLASSIFICATION_TYPE":"U","NORAD_CAT_ID":"44729","ELEMENT_SET_NO":"999","REV_AT_EPOCH":"3383","BSTAR":"0.00055020000000","MEAN_MOTION_DOT":"0.00007745","MEAN_MOTION_DDOT":"0.0000000000000","SEMIMAJOR_AXIS":"6927.881","PERIOD":"95.644","APOAPSIS":"550.431","PERIAPSIS":"549.061","OBJECT_TYPE":"PAYLOAD","RCS_SIZE":"LARGE","COUNTRY_CODE":"US","LAUNCH_DATE":"2019-11-11","SITE":"AFETR","DECAY_DATE":null,"FILE":"2769044","GP_ID":"155987966","TLE_LINE0":"0 STARLINK-1024","TLE_LINE1":"1 44729U 19074S   20171.91667824  .00007745  00000-0  55020-3 0  9999","TLE_LINE2":"2 44729  52.9986 223.4819 0000989 112.9863 128.2106 15.05573846 33833"},{"CCSDS_OMM_VERS":"2.0","COMMENT":"GENERATED VIA SPACE-TRACK.ORG API","CREATION_DATE":"2020-06-20T05:46:09","ORIGINATOR":"18 SPCS","OBJECT_NAME":"STARLINK-1024","OBJECT_ID":"2019-074S","CENTER_NAME":"EARTH","REF_FRAME":"TEME","TIME_SYSTEM":"UTC","MEAN_ELEMENT_THEORY":"SGP4","EPOCH":"2020-06-20T04:00:00.999936","MEAN_MOTION":"15.05585676","ECCENTRICITY":"0.00010920","INCLINATION":"52.9984","RA_OF_ASC_NODE":"222.3595","ARG_OF_PERICENTER":"115.3405","MEAN_ANOMALY":"41.6246","EPHEMERIS_TYPE":"0","CLASSIFICATION_TYPE":"U","NORAD_CAT_ID":"44729","ELEMENT_SET_NO":"999","REV_AT_EPOCH":"3387","BSTAR":"0.00034037000000","MEAN_MOTION_DOT":"0.00004684","MEAN_MOTION_DDOT":"0.0000000000000","SEMIMAJOR_AXIS":"6927.845","PERIOD":"95.643","APOAPSIS":"550.466","PERIAPSIS":"548.953","OBJECT_TYPE":"PAYLOAD","RCS_SIZE":"LARGE","COUNTRY_CODE":"US","LAUNCH_DATE":"2019-11-11","SITE":"AFETR","DECAY_DATE":null,"FILE":"2769183","GP_ID":"156010967","TLE_LINE0":"0 STARLINK-1024","TLE_LINE1":"1 44729U 19074S   20172.16667824  .00004684  00000-0  34037-3 0  9991","TLE_LINE2":"2 44729  52.9984 222.3595 0001092 115.3405  41.6246 15.05585676 33876"},{"CCSDS_OMM_VERS":"2.0","COMMENT":"GENERATED VIA SPACE-TRACK.ORG API","CREATION_DATE":"2020-06-20T09:46:09","ORIGINATOR":"18 SPCS","OBJECT_NAME":"STARLINK-1024","OBJECT_ID":"2019-074S","CENTER_NAME":"EARTH","REF_FRAME":"TEME","TIME_SYSTEM":"UTC","MEAN_ELEMENT_THEORY":"SGP4","EPOCH":"2020-06-20T08:00:01.999872","MEAN_MOTION":"15.05593720","ECCENTRICITY":"0.00010170","INCLINATION":"52.9982","RA_OF_ASC_NODE":"221.6122","ARG_OF_PERICENTER":"108.2290","MEAN_ANOMALY":"232.6463","EPHEMERIS_TYPE":"0","CLASSIFICATION_TYPE":"U","NORAD_CAT_ID":"44729","ELEMENT_SET_NO":"999","REV_AT_EPOCH":"3389","BSTAR":"-0.00205950000000","MEAN_MOTION_DOT":"-0.00030169","MEAN_MOTION_DDOT":"0.0000000000000","SEMIMAJOR_AXIS":"6927.820","PERIOD":"95.643","APOAPSIS":"550.390","PERIAPSIS":"548.981","OBJECT_TYPE":"PAYLOAD","RCS_SIZE":"LARGE","COUNTRY_CODE":"US","LAUNCH_DATE":"2019-11-11","SITE":"AFETR","DECAY_DATE":null,"FILE":"2769417","GP_ID":"156016551","TLE_LINE0":"0 STARLINK-1024","TLE_LINE1":"1 44729U 19074S   20172.33335648 -.00030169  00000-0 -20595-2 0  9998","TLE_LINE2":"2 44729  52.9982 221.6122 0001017 108.2290 232.6463 15.05593720 33896"},{"CCSDS_OMM_VERS":"2.0","COMMENT":"GENERATED VIA SPACE-TRACK.ORG API","CREATION_DATE":"2020-06-20T13:46:09","ORIGINATOR":"18 SPCS","OBJECT_NAME":"STARLINK-1024","OBJECT_ID":"2019-074S","CENTER_NAME":"EARTH","REF_FRAME":"TEME","TIME_SYSTEM":"UTC","MEAN_ELEMENT_THEORY":"SGP4","EPOCH":"2020-06-20T08:00:01.999872","MEAN_MOTION":"15.05593720","ECCENTRICITY":"0.00010170","INCLINATION":"52.9982","RA_OF_ASC_NODE":"221.6122","ARG_OF_PERICENTER":"108.2290","MEAN_ANOMALY":"232.6463","EPHEMERIS_TYPE":"0","CLASSIFICATION_TYPE":"U","NORAD_CAT_ID":"44729","ELEMENT_SET_NO":"999","REV_AT_EPOCH":"3389","BSTAR":"-0.00205950000000","MEAN_MOTION_DOT":"-0.00030169","MEAN_MOTION_DDOT":"0.0000000000000","SEMIMAJOR_AXIS":"6927.820","PERIOD":"95.643","APOAPSIS":"550.390","PERIAPSIS":"548.981","OBJECT_TYPE":"PAYLOAD","RCS_SIZE":"LARGE","COUNTRY_CODE":"US","LAUNCH_DATE":"2019-11-11","SITE":"AFETR","DECAY_DATE":null,"FILE":"2769437","GP_ID":"156016937","TLE_LINE0":"0 STARLINK-1024","TLE_LINE1":"1 44729U 19074S   20172.33335648 -.00030169  00000-0 -20595-2 0  9998","TLE_LINE2":"2 44729  52.9982 221.6122 0001017 108.2290 232.6463 15.05593720 33896"}]